stk.v.4.3 

BEGIN Ephemeris 
 
NumberOfEphemerisPoints		146 
ScenarioEpoch	    1 Sep 2020  8:11:39.686783553 
InterpolationMethod		Lagrange 
InterpolationOrder		5 
CentralBody				Earth 
CoordinateSystem			TEME 
CoordinateSystemEpoch	  1 Sep 2020  8:11:39.686783553 
DistanceUnit			Kilometers 
 
EphemerisTimePosVel 
 
       0.00000000   -7070.85683630   -1117.76591043       0.04240866  0.082479464 -0.460782191  7.448990198
 END Ephemeris 
